{"type": "FeatureCollection", "features": [{"type": "Feature", "properties": {"slug": "east", "display_name": "East", "boundary_source": "osm"}, "geometry": {"type": "Polygon", "coordinates": [[[77.6024153, 12.9182512], [77.6022552, 12.919154], [77.6017206, 12.9190338], [77.6015693, 12.9201753], [77.6001879, 12.920048], [77.6001009, 12.9188572], [77.5983609, 12.9189318], [77.5980528, 12.9189306], [77.5978726, 12.9189419], [77.5977242, 12.9189549], [77.5973432, 12.9189669], [77.5969935, 12.9189796], [77.5966435, 12.9189476], [77.5966432, 12.9189512], [77.5964787, 12.91895], [77.5963302, 12.9189512], [77.5961745, 12.9189524], [77.5961264, 12.9189528], [77.5958464, 12.9189563], [77.5956856, 12.9189593], [77.5955372, 12.9189622], [77.5953863, 12.9189619], [77.5951367, 12.9189684], [77.594986, 12.9189768], [77.594926, 12.9189789], [77.5948743, 12.9189773], [77.5947062, 12.9189816], [77.5946444, 12.9189749], [77.5943097, 12.9189847], [77.5940642, 12.9189871], [77.5937914, 12.9189898], [77.5933433, 12.9189921], [77.5933179, 12.9189793], [77.5931186, 12.9189774], [77.5926294, 12.9189784], [77.5926541, 12.9190523], [77.59274, 12.9192932], [77.5927651, 12.9193636], [77.5928332, 12.9195547], [77.5928427, 12.9195951], [77.5928642, 12.9196863], [77.5922414, 12.9197044], [77.591722, 12.919722], [77.5914794, 12.9197269], [77.591506, 12.9201718], [77.5914937, 12.9206883], [77.591493, 12.9213208], [77.5914881, 12.9216633], [77.5916295, 12.9216641], [77.5925299, 12.9216399], [77.5934485, 12.9216166], [77.5934486, 12.9216452], [77.5943851, 12.9216359], [77.5952014, 12.9216349], [77.5962818, 12.9216175], [77.5969878, 12.9216019], [77.5969751, 12.9210089], [77.5969667, 12.9205806], [77.5969674, 12.9205056], [77.5971398, 12.9205086], [77.5973793, 12.9205188], [77.5975637, 12.9205274], [77.5980952, 12.9205472], [77.5985028, 12.9205561], [77.5989999, 12.9205612], [77.5995358, 12.9205645], [77.6000527, 12.9205715], [77.6000998, 12.9205752], [77.6001031, 12.9206406], [77.6001163, 12.9209116], [77.6001537, 12.9209147], [77.6008474, 12.920944], [77.6011868, 12.9209521], [77.6014747, 12.9209757], [77.6015366, 12.9209808], [77.6015615, 12.9209828], [77.6020181, 12.9210242], [77.6020921, 12.9210355], [77.6022993, 12.9210673], [77.6023766, 12.9210698], [77.6023981, 12.921116], [77.6023985, 12.9211167], [77.6024151, 12.921284], [77.6024191, 12.9213669], [77.6024195, 12.9214002], [77.6024362, 12.9214236], [77.6025137, 12.9214323], [77.6027829, 12.9214411], [77.603368, 12.9214582], [77.6034612, 12.9214547], [77.603777, 12.9214522], [77.6039312, 12.921423], [77.6040037, 12.9213584], [77.6040016, 12.9215031], [77.6043891, 12.9215052], [77.6048057, 12.9215273], [77.6048056, 12.9215393], [77.6048319, 12.921538], [77.6048438, 12.9219381], [77.6051156, 12.9218937], [77.6055447, 12.9218426], [77.6060615, 12.9217035], [77.6061368, 12.9219393], [77.606197, 12.9221207], [77.6063666, 12.9226646], [77.6064997, 12.9230127], [77.6065774, 12.9232516], [77.6071314, 12.9231037], [77.6073657, 12.923044], [77.60755, 12.9236221], [77.6076079, 12.9236044], [77.6077731, 12.9240891], [77.6079165, 12.9245494], [77.6079828, 12.9248144], [77.6080861, 12.9248006], [77.6081407, 12.9247978], [77.6082713, 12.924784], [77.6083245, 12.9247564], [77.6084005, 12.924759], [77.6085273, 12.9248244], [77.6085704, 12.924625], [77.6087029, 12.9240121], [77.6087316, 12.9238794], [77.6084211, 12.923747], [77.6086098, 12.9234076], [77.6086743, 12.9232916], [77.608728, 12.9231423], [77.608732, 12.9231312], [77.6087436, 12.9230989], [77.6088463, 12.9229176], [77.6088652, 12.9228843], [77.6088772, 12.9228254], [77.6088825, 12.9227985], [77.6088966, 12.9227275], [77.6088996, 12.9227123], [77.6088529, 12.9223531], [77.6088477, 12.922313], [77.6088369, 12.9222781], [77.6088245, 12.9222376], [77.6088072, 12.9222249], [77.6087462, 12.9221797], [77.6087133, 12.922119], [77.6087001, 12.9220153], [77.6086756, 12.9218179], [77.6086746, 12.9217196], [77.6086743, 12.9216903], [77.6086727, 12.9215875], [77.6086726, 12.9215826], [77.6086725, 12.9215672], [77.6086711, 12.9215642], [77.6086607, 12.9215402], [77.6086603, 12.9215395], [77.6086471, 12.921511], [77.6086201, 12.9214332], [77.6085379, 12.921197], [77.6085231, 12.9211543], [77.6085195, 12.9211439], [77.6084786, 12.921026], [77.6084751, 12.9210203], [77.6084531, 12.9209853], [77.6083955, 12.9208935], [77.6083832, 12.9208745], [77.6083709, 12.9208543], [77.6082117, 12.9206029], [77.6082025, 12.9205712], [77.6081121, 12.9202617], [77.6080857, 12.9201592], [77.6080604, 12.9200836], [77.6080295, 12.9200925], [77.6078518, 12.92014], [77.6075581, 12.9202186], [77.6074584, 12.9202415], [77.6072664, 12.9202856], [77.6069885, 12.9203521], [77.606683, 12.9204253], [77.6063884, 12.9204951], [77.6059275, 12.9206078], [77.6058343, 12.9206319], [77.6057817, 12.9206456], [77.6053176, 12.9207626], [77.6052709, 12.9205493], [77.6052437, 12.9204338], [77.6051029, 12.9200323], [77.6051418, 12.9195858], [77.6041829, 12.919412], [77.6041324, 12.9199354], [77.603982, 12.9199115], [77.6035933, 12.9198384], [77.6034156, 12.9198077], [77.6034423, 12.9195676], [77.6034519, 12.9194865], [77.6034533, 12.9194159], [77.6034064, 12.9193779], [77.6033788, 12.9193457], [77.6033865, 12.9191448], [77.6034068, 12.9185719], [77.6034232, 12.9182402], [77.603423, 12.9181749], [77.6034542, 12.9175432], [77.6030568, 12.9174726], [77.6030325, 12.917817], [77.6024143, 12.9177331], [77.6024153, 12.9182512]]]}}, {"type": "Feature", "properties": {"slug": "west", "display_name": "West", "boundary_source": "osm"}, "geometry": {"type": "Polygon", "coordinates": [[[77.5355545, 12.967696], [77.5360239, 12.9689237], [77.5360397, 12.9689659], [77.5362305, 12.9694356], [77.5357827, 12.9695732], [77.5348511, 12.9698676], [77.5341712, 12.9700264], [77.5341335, 12.9700358], [77.5334372, 12.9701675], [77.5330831, 12.9702239], [77.5331152, 12.9703591], [77.5327766, 12.9704193], [77.5327807, 12.9704316], [77.5328172, 12.9706046], [77.5328246, 12.9706492], [77.5333414, 12.9705442], [77.5333762, 12.9707021], [77.5335739, 12.9714198], [77.5335988, 12.9714216], [77.533602, 12.9714314], [77.5337999, 12.9720866], [77.5334188, 12.9721782], [77.5328406, 12.9723019], [77.5326955, 12.9723399], [77.5319848, 12.9724915], [77.5319841, 12.9724869], [77.5311795, 12.9726409], [77.529747, 12.9729034], [77.5295701, 12.9729581], [77.5295363, 12.9728956], [77.5287801, 12.9728781], [77.528717, 12.9728349], [77.5285413, 12.9728499], [77.5285432, 12.9728759], [77.5284555, 12.9728691], [77.5281723, 12.9728748], [77.5276245, 12.9728832], [77.5270629, 12.9729159], [77.5270761, 12.9731957], [77.527087, 12.9734989], [77.527102, 12.9735014], [77.5271157, 12.9739781], [77.5271315, 12.9741596], [77.5271304, 12.9743579], [77.526541, 12.9743848], [77.5265264, 12.9746241], [77.5265388, 12.9747761], [77.5265475, 12.9750251], [77.5265591, 12.975336], [77.5264936, 12.9753427], [77.5265255, 12.9756255], [77.5265556, 12.9759257], [77.5265015, 12.9759202], [77.5262754, 12.9759246], [77.5259214, 12.9759485], [77.5246112, 12.9760612], [77.5246233, 12.9762257], [77.5246411, 12.9763856], [77.5245636, 12.9763882], [77.524272, 12.9763998], [77.5242582, 12.9761391], [77.5242038, 12.9756447], [77.5241732, 12.9753725], [77.5241651, 12.9753302], [77.5241151, 12.9750373], [77.5239621, 12.9750478], [77.5238042, 12.975066], [77.5237578, 12.9747407], [77.5237362, 12.9746645], [77.5236593, 12.9746686], [77.523649, 12.9745575], [77.5235235, 12.973913], [77.5235597, 12.9739021], [77.5238178, 12.9738193], [77.5248024, 12.9735381], [77.5245932, 12.9728438], [77.5253365, 12.9726995], [77.5252584, 12.9724125], [77.5252186, 12.9722178], [77.5251719, 12.9719891], [77.5251408, 12.9717934], [77.525097, 12.9715612], [77.5251375, 12.9715533], [77.5255068, 12.9715099], [77.5254778, 12.9710867], [77.5254528, 12.9707566], [77.5256634, 12.9707283], [77.5257342, 12.9707109], [77.5261696, 12.970597], [77.526453, 12.9705518], [77.5265583, 12.9705871], [77.5265774, 12.9706186], [77.5266686, 12.9705911], [77.5268387, 12.9705441], [77.5270722, 12.9704916], [77.5275409, 12.9703997], [77.5274995, 12.9701666], [77.5277291, 12.9701235], [77.5277835, 12.9701638], [77.5278271, 12.9704336], [77.5285334, 12.9699809], [77.5283793, 12.9695231], [77.5283205, 12.9685945], [77.5282716, 12.9682236], [77.5286445, 12.9682138], [77.5290357, 12.9682148], [77.5293362, 12.9682143], [77.5293882, 12.9682723], [77.5295047, 12.968801], [77.529607, 12.9693056], [77.5296783, 12.9696409], [77.5297259, 12.9699164], [77.5298461, 12.9698955], [77.5303944, 12.9697823], [77.5307275, 12.9697098], [77.5307944, 12.9696891], [77.5307369, 12.9693816], [77.5306017, 12.9688229], [77.5305942, 12.9687858], [77.5305728, 12.9686804], [77.5311749, 12.9685493], [77.5317211, 12.9684827], [77.5320348, 12.9684902], [77.5324081, 12.9685227], [77.5326424, 12.9685812], [77.5329163, 12.9684998], [77.5353359, 12.9677538], [77.5355545, 12.967696]]]}}, {"type": "Feature", "properties": {"slug": "south", "display_name": "South", "boundary_source": "osm"}, "geometry": {"type": "Polygon", "coordinates": [[[77.5955998, 12.9127148], [77.5956021, 12.9123427], [77.5956333, 12.9115833], [77.5956384, 12.9111259], [77.5956536, 12.9108952], [77.5954959, 12.9108952], [77.5951815, 12.910884], [77.595186, 12.9107966], [77.5951868, 12.9106338], [77.5952008, 12.9102177], [77.5948558, 12.9101948], [77.5944218, 12.9101657], [77.5943905, 12.9101618], [77.5939814, 12.9101115], [77.5939022, 12.9101171], [77.5936549, 12.9101273], [77.5933335, 12.9101406], [77.5933177, 12.9101392], [77.5933225, 12.9102285], [77.5923131, 12.9102859], [77.5919573, 12.9103061], [77.591392, 12.9103383], [77.5907206, 12.9103764], [77.5903391, 12.9103981], [77.5902266, 12.9104045], [77.5888636, 12.910445], [77.5879106, 12.9104734], [77.5877364, 12.9104808], [77.5877307, 12.9104811], [77.5857384, 12.9105665], [77.5857036, 12.910568], [77.5857367, 12.9122106], [77.5857386, 12.9122767], [77.5857881, 12.9140018], [77.5857947, 12.9142325], [77.5858382, 12.9157505], [77.5858382, 12.9158227], [77.5858382, 12.9160786], [77.5858381, 12.9170954], [77.585838, 12.9171435], [77.585838, 12.9173136], [77.5858898, 12.9199624], [77.5858954, 12.9202458], [77.5867824, 12.9202255], [77.5873218, 12.9202087], [77.5880293, 12.9201945], [77.588037, 12.920662], [77.5880371, 12.9206702], [77.5882997, 12.9206625], [77.5889327, 12.9206591], [77.5895364, 12.9206431], [77.5895323, 12.9201814], [77.5895287, 12.919766], [77.5895249, 12.9193419], [77.5895247, 12.9193346], [77.5895142, 12.9188805], [77.5898242, 12.9188636], [77.5899667, 12.9188619], [77.5901955, 12.9188743], [77.5903782, 12.9188714], [77.5903705, 12.9186298], [77.5903292, 12.9182537], [77.5903278, 12.9182049], [77.590341, 12.9181501], [77.5903379, 12.9176596], [77.5903326, 12.9174266], [77.5904893, 12.9174138], [77.5905778, 12.9173253], [77.5906705, 12.9171976], [77.5907642, 12.9170661], [77.5907745, 12.9169579], [77.5907746, 12.9169579], [77.5907745, 12.9169578], [77.5894231, 12.9169976], [77.5894176, 12.9165336], [77.5896256, 12.9165054], [77.5897861, 12.9149525], [77.5904578, 12.914956], [77.590511, 12.9147446], [77.5906106, 12.913362], [77.5911218, 12.9133786], [77.5915181, 12.9133603], [77.5915513, 12.9145183], [77.5932581, 12.9149797], [77.5943097, 12.9149365], [77.5950399, 12.9149129], [77.595041, 12.9147281], [77.5950508, 12.9144986], [77.5950542, 12.9144922], [77.5950497, 12.9144356], [77.5946387, 12.9142879], [77.5942121, 12.9141283], [77.5941871, 12.9140954], [77.594236, 12.9139398], [77.594334, 12.9136446], [77.594356, 12.9130975], [77.5946195, 12.9132321], [77.5947402, 12.9132934], [77.5950899, 12.9134896], [77.5950958, 12.9130426], [77.5951137, 12.9127013], [77.5954335, 12.9127111], [77.5955998, 12.9127148]]]}}, {"type": "Feature", "properties": {"slug": "bommanahalli", "display_name": "Bommanahalli", "boundary_source": "osm"}, "geometry": {"type": "Polygon", "coordinates": [[[77.6311381, 12.9034239], [77.6310038, 12.9036412], [77.630682, 12.9041621], [77.6303111, 12.9047689], [77.6298885, 12.9054602], [77.6297619, 12.9056673], [77.6295957, 12.9059378], [77.6295951, 12.9059387], [77.6293723, 12.9063012], [77.6292004, 12.906581], [77.6290143, 12.9068838], [77.6284842, 12.9077302], [77.6282911, 12.9080386], [77.6280548, 12.9084277], [77.6280092, 12.9085028], [77.6279368, 12.9086222], [77.62756, 12.9092427], [77.6269497, 12.910227], [77.6268287, 12.9104221], [77.6267393, 12.9105698], [77.6266457, 12.9105147], [77.6263426, 12.9103384], [77.6260404, 12.910208], [77.6261044, 12.9100907], [77.6261968, 12.909902], [77.6262177, 12.9098453], [77.626215, 12.9097733], [77.6262016, 12.9096701], [77.6260956, 12.9095761], [77.6259433, 12.9094271], [77.6258264, 12.9093777], [77.6255655, 12.9094511], [77.6255249, 12.9091818], [77.6254057, 12.9088045], [77.6246128, 12.908957], [77.624309, 12.909033], [77.6242643, 12.9090586], [77.6242562, 12.9090459], [77.6241683, 12.9090426], [77.6240056, 12.9088359], [77.6239376, 12.9087919], [77.6236483, 12.9087906], [77.6234763, 12.9088013], [77.6232302, 12.9082319], [77.6231522, 12.9080732], [77.6231062, 12.9079719], [77.6229529, 12.9076892], [77.6229082, 12.9074169], [77.6229003, 12.9073509], [77.6228994, 12.9073435], [77.622884, 12.9068657], [77.6228833, 12.9068465], [77.6224234, 12.9068976], [77.6223427, 12.9069054], [77.6223337, 12.9068498], [77.622306, 12.9068202], [77.6222745, 12.9067596], [77.6221819, 12.9067141], [77.6220515, 12.9067111], [77.6220343, 12.9067098], [77.6219492, 12.906703], [77.6215573, 12.9067435], [77.621471, 12.9058783], [77.6217997, 12.9058083], [77.6217142, 12.9051651], [77.6217089, 12.9049411], [77.6216518, 12.9046288], [77.6212003, 12.9046928], [77.6211099, 12.9046887], [77.6208492, 12.9047566], [77.6205199, 12.9048419], [77.6204883, 12.904749], [77.6202812, 12.9041293], [77.6201897, 12.9039061], [77.620087, 12.9037219], [77.6200286, 12.9036325], [77.6199527, 12.9034924], [77.6197918, 12.9032851], [77.6197068, 12.9030575], [77.6195927, 12.9027966], [77.6195324, 12.9024362], [77.6200908, 12.902283], [77.6199935, 12.9019277], [77.6199527, 12.9018461], [77.6202622, 12.9017364], [77.6203495, 12.9016886], [77.620321, 12.9014154], [77.6202864, 12.9010601], [77.6202328, 12.9010856], [77.6199904, 12.901082], [77.6198342, 12.8995573], [77.6198108, 12.8989189], [77.6197868, 12.8986256], [77.6197663, 12.8985451], [77.6197479, 12.8982751], [77.6206056, 12.8979764], [77.6211241, 12.8977807], [77.6214413, 12.8976775], [77.6213643, 12.8974084], [77.6219648, 12.8973736], [77.6226472, 12.8973438], [77.6230987, 12.8973195], [77.6229359, 12.8964708], [77.6229152, 12.8963918], [77.6231186, 12.896329], [77.6231924, 12.8963434], [77.6232907, 12.8963551], [77.6235796, 12.8964403], [77.6236679, 12.896485], [77.6237584, 12.8964917], [77.6239718, 12.8965149], [77.6240447, 12.8965712], [77.6241177, 12.8966111], [77.6242172, 12.8970113], [77.624229, 12.8970683], [77.6248833, 12.8969455], [77.6248688, 12.896815], [77.6254839, 12.8967116], [77.6257354, 12.897694], [77.6258521, 12.8982588], [77.6258628, 12.8989679], [77.6255332, 12.8990119], [77.6242724, 12.8990115], [77.6244761, 12.8999145], [77.624564, 12.900219], [77.6250072, 12.9015272], [77.625399, 12.9033178], [77.6258696, 12.9033699], [77.6264069, 12.9035959], [77.6264157, 12.9044337], [77.6274826, 12.9043615], [77.6274826, 12.9043616], [77.6283731, 12.9041131], [77.6289879, 12.903972], [77.6290619, 12.9039652], [77.6293429, 12.9039022], [77.6292962, 12.9035945], [77.6299894, 12.9035195], [77.6307525, 12.9034948], [77.6311381, 12.9034239]]]}}, {"type": "Feature", "properties": {"slug": "mahadevapura", "display_name": "Mahadevapura", "boundary_source": "osm"}, "geometry": {"type": "Polygon", "coordinates": [[[77.6765691, 12.9912629], [77.6762885, 12.991337], [77.6759329, 12.9914454], [77.6755625, 12.9915463], [77.6754748, 12.991255], [77.6752412, 12.9913041], [77.6750358, 12.9913658], [77.6748025, 12.9900943], [77.6749267, 12.9900977], [77.6749604, 12.9895243], [77.6749977, 12.98888], [77.6750267, 12.987162], [77.67491, 12.9870665], [77.6747281, 12.9870228], [77.6747221, 12.9870199], [77.6746656, 12.9868167], [77.6746565, 12.9867261], [77.6744595, 12.9867295], [77.6746389, 12.9866077], [77.6748881, 12.9864314], [77.6749429, 12.9863981], [77.6749244, 12.9863683], [77.6757902, 12.9858207], [77.6757984, 12.9858165], [77.676062, 12.9856802], [77.6761015, 12.9856598], [77.6764567, 12.9854762], [77.6764618, 12.9854728], [77.6768269, 12.9852298], [77.6769255, 12.9851642], [77.6772598, 12.984942], [77.6773674, 12.9848706], [77.6774969, 12.9848173], [77.6776087, 12.9847733], [77.6776602, 12.9847422], [77.6777192, 12.9846569], [77.6778095, 12.984656], [77.6778721, 12.9846407], [77.6780267, 12.9845589], [77.6782419, 12.9844393], [77.6783568, 12.9843579], [77.6784721, 12.9842686], [77.678591, 12.9840811], [77.6788146, 12.9840494], [77.6789543, 12.9840299], [77.6790679, 12.9839892], [77.6791445, 12.9839444], [77.6797041, 12.9836168], [77.6797134, 12.983628], [77.6798027, 12.9836664], [77.6807446, 12.983139], [77.6815303, 12.9826726], [77.6827106, 12.9820022], [77.6839206, 12.9813101], [77.6853241, 12.9805481], [77.6860473, 12.9801402], [77.6866135, 12.9798203], [77.6872155, 12.9794824], [77.6871875, 12.9794302], [77.687223, 12.9794101], [77.6887284, 12.9785593], [77.6888218, 12.9785066], [77.689446, 12.9800219], [77.6896142, 12.9804304], [77.690046, 12.9814785], [77.6900948, 12.981597], [77.6901779, 12.9817989], [77.6912138, 12.9816094], [77.6916041, 12.9815379], [77.6916141, 12.9815548], [77.6920519, 12.9817953], [77.6921277, 12.9818318], [77.6922299, 12.9818601], [77.6922645, 12.9818642], [77.6923487, 12.9818735], [77.6932227, 12.9818726], [77.6933165, 12.9818725], [77.693501, 12.9815827], [77.6935206, 12.981587], [77.6935385, 12.9815879], [77.6935868, 12.9815829], [77.6936253, 12.9815768], [77.6937488, 12.9815496], [77.6937706, 12.981546], [77.6938149, 12.9815421], [77.693861, 12.9815383], [77.6939265, 12.9815308], [77.6940076, 12.9815266], [77.694094, 12.9815268], [77.6941626, 12.981534], [77.6942399, 12.9815456], [77.6943269, 12.981556], [77.6943586, 12.9815613], [77.6943719, 12.9815657], [77.6944147, 12.9814704], [77.6944385, 12.9814397], [77.6944989, 12.9813837], [77.6946008, 12.9813296], [77.6949709, 12.9812625], [77.6950563, 12.9812323], [77.6951042, 12.9812054], [77.6951158, 12.9811989], [77.6951829, 12.9811214], [77.6952108, 12.9812476], [77.6952548, 12.9814324], [77.6953025, 12.9815832], [77.695375, 12.9817902], [77.6954775, 12.981954], [77.6955427, 12.9820753], [77.6955603, 12.982109], [77.6956186, 12.9822224], [77.6956729, 12.9823495], [77.6957006, 12.9824666], [77.6957522, 12.9828206], [77.6957853, 12.9830586], [77.6958152, 12.9833214], [77.6958272, 12.9835776], [77.6958417, 12.9837999], [77.6958493, 12.9839217], [77.6958493, 12.9839218], [77.6958199, 12.9839729], [77.6958192, 12.9839816], [77.6958192, 12.9839817], [77.6956878, 12.9855604], [77.6955931, 12.9866977], [77.6955931, 12.9866978], [77.6955771, 12.9876701], [77.6955771, 12.9876702], [77.6957151, 12.9887708], [77.6957151, 12.9887709], [77.6955551, 12.9889904], [77.6955551, 12.9889905], [77.6955632, 12.9902616], [77.6955633, 12.9902788], [77.6953193, 12.9903457], [77.6951446, 12.9903746], [77.6950012, 12.990323], [77.6949784, 12.9903231], [77.6947825, 12.9903241], [77.6947825, 12.9903242], [77.6947769, 12.9903255], [77.6945252, 12.9903871], [77.6945223, 12.9903879], [77.6945223, 12.9903878], [77.6945102, 12.9903832], [77.6944113, 12.9903461], [77.6944113, 12.990346], [77.6942887, 12.9902966], [77.6942887, 12.9902965], [77.6942227, 12.9903026], [77.6942042, 12.9903043], [77.6940949, 12.9903143], [77.6940949, 12.9903144], [77.6936208, 12.9903949], [77.6936208, 12.990395], [77.6934978, 12.9904166], [77.6934978, 12.9904165], [77.6934938, 12.9904154], [77.6934938, 12.9904155], [77.693247, 12.9904948], [77.6931157, 12.990539], [77.6931157, 12.9905391], [77.6927027, 12.9907398], [77.6927027, 12.9907399], [77.6924882, 12.9908497], [77.6924882, 12.9908498], [77.6924809, 12.9908534], [77.6921336, 12.9910314], [77.6919288, 12.9911264], [77.6919288, 12.9911265], [77.691402, 12.991371], [77.6911594, 12.9914615], [77.6911594, 12.9914616], [77.691082, 12.9914906], [77.6908939, 12.9915614], [77.6908939, 12.9915615], [77.6907596, 12.9915967], [77.690612, 12.9916343], [77.690612, 12.9916344], [77.6905159, 12.991641], [77.6902223, 12.991644], [77.6902223, 12.9916441], [77.6900364, 12.9916482], [77.6900364, 12.9916483], [77.6898373, 12.9916582], [77.6898247, 12.9916594], [77.6898247, 12.9916595], [77.6896808, 12.9916632], [77.6894965, 12.9917193], [77.6894966, 12.9917194], [77.6893744, 12.9917554], [77.6893737, 12.9917556], [77.6892274, 12.9917966], [77.6892274, 12.9917967], [77.6889679, 12.9918693], [77.6889679, 12.9918694], [77.6887733, 12.9919233], [77.6886845, 12.9919648], [77.6886845, 12.9919649], [77.6886657, 12.9919736], [77.6885178, 12.9920423], [77.6885086, 12.9920457], [77.6885179, 12.9920585], [77.6884904, 12.9920719], [77.6880208, 12.9915305], [77.6878509, 12.9914159], [77.6878221, 12.9914124], [77.6877486, 12.9914131], [77.6876572, 12.9913939], [77.6875186, 12.9912631], [77.6875146, 12.9912593], [77.6874299, 12.9911968], [77.6873887, 12.9912508], [77.6860072, 12.9930641], [77.6858064, 12.9933493], [77.6850748, 12.9943883], [77.6848783, 12.9946674], [77.6846133, 12.9950225], [77.6841436, 12.9956621], [77.6839356, 12.9959453], [77.6836471, 12.9963293], [77.6834856, 12.9962713], [77.6834224, 12.9962258], [77.6833901, 12.9961304], [77.6833682, 12.9960515], [77.6833501, 12.9959781], [77.6833123, 12.9958943], [77.6832904, 12.9958088], [77.6832597, 12.9957266], [77.6832575, 12.9956696], [77.6832356, 12.9955655], [77.6832192, 12.9954702], [77.6832214, 12.9953858], [77.6832214, 12.9952719], [77.683202, 12.9951567], [77.6831359, 12.9951009], [77.6830099, 12.9950801], [77.6829185, 12.9950301], [77.682542, 12.9949772], [77.6825296, 12.9948237], [77.682132, 12.9947957], [77.6820921, 12.9948568], [77.6812118, 12.9948228], [77.6808202, 12.9948037], [77.6806674, 12.9947963], [77.6803943, 12.9947777], [77.6799083, 12.9947508], [77.6795786, 12.9947326], [77.6793, 12.9947302], [77.6791, 12.9947286], [77.6788426, 12.9947715], [77.6786095, 12.9948104], [77.6782552, 12.9948533], [77.6779932, 12.9948578], [77.6778223, 12.994872], [77.6777269, 12.9948948], [77.677565, 12.9948978], [77.6773448, 12.9949546], [77.6772462, 12.9950072], [77.6771018, 12.9950452], [77.6770176, 12.9949212], [77.6769762, 12.9948603], [77.6767323, 12.9944695], [77.6765177, 12.9942211], [77.6765018, 12.9942032], [77.6762873, 12.9939694], [77.6761918, 12.9938652], [77.6760138, 12.9936633], [77.6759605, 12.9936028], [77.6759217, 12.9935403], [77.6758798, 12.9934786], [77.675845, 12.9933889], [77.6758063, 12.9932674], [77.6757954, 12.9931815], [77.6758189, 12.9930781], [77.6758474, 12.9929653], [77.6758792, 12.9928294], [77.6759011, 12.9927527], [77.6759143, 12.9927187], [77.6759334, 12.9927017], [77.6760792, 12.992679], [77.6763528, 12.9926483], [77.6766296, 12.9925672], [77.6764088, 12.9917599], [77.6766829, 12.9917032], [77.6765691, 12.9912629]]]}}, {"type": "Feature", "properties": {"slug": "rr-nagar", "display_name": "Rajarajeshwari Nagar", "boundary_source": "osm"}, "geometry": {"type": "Polygon", "coordinates": [[[77.6046558, 13.0339891], [77.6046613, 13.0340598], [77.6046579, 13.0348323], [77.604466, 13.0348584], [77.60439, 13.0348623], [77.6043013, 13.0348671], [77.6040918, 13.0348816], [77.6040268, 13.0348868], [77.6039855, 13.0348837], [77.6038992, 13.0348913], [77.6037439, 13.0349053], [77.6036449, 13.0349142], [77.603447, 13.0349262], [77.6034142, 13.0349288], [77.6033898, 13.0349281], [77.6032852, 13.0349371], [77.6032151, 13.0349509], [77.6031634, 13.0349571], [77.6031478, 13.0349595], [77.602896, 13.0350208], [77.6028736, 13.0350244], [77.6025407, 13.0350938], [77.6022122, 13.0351175], [77.6021786, 13.0351283], [77.6021378, 13.0351344], [77.6019329, 13.0351605], [77.6018352, 13.0351663], [77.6015561, 13.0351354], [77.6013858, 13.0350942], [77.6011388, 13.0350447], [77.6010679, 13.035042], [77.6009002, 13.0350347], [77.6007746, 13.0350292], [77.6007574, 13.0350293], [77.6006393, 13.0350328], [77.600489, 13.0350817], [77.6004573, 13.0350866], [77.6001801, 13.0351392], [77.6001151, 13.0351489], [77.6001071, 13.0351501], [77.5998861, 13.0351748], [77.5998798, 13.035176], [77.5998478, 13.0351814], [77.5994444, 13.035246], [77.5994386, 13.0352472], [77.5992201, 13.0352763], [77.5990917, 13.0352988], [77.5990828, 13.0353092], [77.5989069, 13.0353404], [77.5988608, 13.0353576], [77.5988267, 13.0353725], [77.5987267, 13.0353927], [77.5984738, 13.0354449], [77.598351, 13.0354845], [77.5982408, 13.0355161], [77.5978931, 13.0356164], [77.5978664, 13.0356212], [77.597307, 13.0357226], [77.59706, 13.0357859], [77.5969019, 13.0353604], [77.5967562, 13.0340227], [77.5965793, 13.0340282], [77.5964529, 13.0325065], [77.596459, 13.0321065], [77.5964775, 13.0318519], [77.5964583, 13.0315237], [77.5964582, 13.0314809], [77.5964583, 13.0314777], [77.5964584, 13.0314732], [77.5964584, 13.0314721], [77.5964584, 13.031472], [77.5964584, 13.0314716], [77.5964583, 13.0314714], [77.5964583, 13.0314707], [77.5964583, 13.0314703], [77.5964583, 13.0314701], [77.5964793, 13.0311953], [77.5964811, 13.03119], [77.5964796, 13.03119], [77.5964676, 13.0311292], [77.5964746, 13.031037], [77.596478, 13.0309921], [77.5964867, 13.0308779], [77.5964913, 13.0306214], [77.596487, 13.0304919], [77.5964932, 13.0304101], [77.596494, 13.0303993], [77.5965049, 13.0302514], [77.5965056, 13.0302419], [77.59651, 13.0301826], [77.5965107, 13.0301724], [77.5965114, 13.0301637], [77.5965136, 13.0301336], [77.5964949, 13.0301303], [77.5964921, 13.0301306], [77.5964823, 13.0301238], [77.5964819, 13.0301238], [77.5964797, 13.0301178], [77.5964775, 13.030112], [77.5964773, 13.0301113], [77.5964766, 13.0301094], [77.5964797, 13.0299991], [77.5964664, 13.0298755], [77.5964361, 13.0298752], [77.5963328, 13.0298694], [77.5963288, 13.0298693], [77.5960936, 13.0298854], [77.596076, 13.0298852], [77.5960748, 13.0298742], [77.5960468, 13.0296092], [77.5959937, 13.0291153], [77.5959804, 13.0291154], [77.5959297, 13.0288381], [77.5958998, 13.0286747], [77.5958511, 13.0284065], [77.5958444, 13.0283698], [77.5958441, 13.0283681], [77.5958406, 13.0283492], [77.5955577, 13.0284011], [77.5955207, 13.028407], [77.5954833, 13.028413], [77.5954357, 13.028175], [77.5953849, 13.0279141], [77.5953286, 13.0276256], [77.5953155, 13.0275582], [77.5953108, 13.0275344], [77.5952936, 13.027446], [77.595264, 13.0272946], [77.595244, 13.0271917], [77.5951242, 13.0265797], [77.5950986, 13.026449], [77.5950808, 13.0263563], [77.5950637, 13.0262673], [77.595056, 13.0262269], [77.5950461, 13.0261768], [77.5950356, 13.0261232], [77.5950161, 13.0260241], [77.5950128, 13.0260071], [77.5949609, 13.0257414], [77.5949473, 13.0256716], [77.59494, 13.0256346], [77.5949076, 13.0254684], [77.594887, 13.0253628], [77.5948774, 13.0253139], [77.5948301, 13.025071], [77.5947674, 13.0247453], [77.5947503, 13.0247471], [77.5947213, 13.0247545], [77.594696, 13.0247611], [77.5946937, 13.0247615], [77.5944171, 13.0248114], [77.5943913, 13.0248161], [77.5943467, 13.0248242], [77.5943272, 13.0248277], [77.594246, 13.0248425], [77.5941862, 13.0248534], [77.5938528, 13.0249141], [77.5938357, 13.0249162], [77.5937711, 13.0249245], [77.5937357, 13.024929], [77.5936802, 13.0249361], [77.5936149, 13.0249444], [77.5935779, 13.0249491], [77.5934974, 13.0249594], [77.5934933, 13.0249594], [77.5932176, 13.0249699], [77.5929992, 13.0249876], [77.5929987, 13.0249839], [77.5929742, 13.0249221], [77.5929368, 13.0247472], [77.5929134, 13.0246206], [77.592886, 13.0244419], [77.5928716, 13.0243486], [77.5927884, 13.0239826], [77.5927505, 13.0237355], [77.5927128, 13.0234905], [77.5927116, 13.0234827], [77.5927004, 13.0234099], [77.5926874, 13.0233204], [77.592595, 13.0227617], [77.5925825, 13.0226751], [77.5925627, 13.0225177], [77.5925623, 13.022508], [77.5925526, 13.0223134], [77.5925251, 13.0221844], [77.5925241, 13.0221649], [77.5925222, 13.0221245], [77.5925178, 13.0220358], [77.592512, 13.0219207], [77.592534, 13.0217001], [77.5925332, 13.0216812], [77.5925302, 13.0216173], [77.5925224, 13.021455], [77.5925212, 13.0214306], [77.592503, 13.0210507], [77.5925015, 13.0210393], [77.5924853, 13.0209168], [77.5924646, 13.0207456], [77.5924615, 13.0207218], [77.5924483, 13.0206193], [77.592437, 13.0205321], [77.5924183, 13.0203869], [77.5924095, 13.02032], [77.5923986, 13.0202362], [77.5923836, 13.020121], [77.5923696, 13.0200139], [77.592355, 13.019902], [77.5923526, 13.0198681], [77.5923391, 13.0196034], [77.5923309, 13.0194916], [77.5923218, 13.0193665], [77.5923217, 13.0193642], [77.5923177, 13.0193033], [77.5923076, 13.0191645], [77.5923056, 13.0191386], [77.5921872, 13.0187304], [77.5921397, 13.0185718], [77.5920986, 13.0184347], [77.5920894, 13.0184039], [77.5920428, 13.0182463], [77.5919812, 13.0180392], [77.5919266, 13.0178557], [77.5919252, 13.0178511], [77.5918387, 13.0175369], [77.5917716, 13.0173121], [77.5917126, 13.0171231], [77.5916807, 13.0170159], [77.5916129, 13.0168258], [77.5915763, 13.0166553], [77.5914913, 13.0164253], [77.5914767, 13.0163763], [77.5914707, 13.0163559], [77.5914643, 13.0163346], [77.5914455, 13.0162713], [77.5914187, 13.0161333], [77.5914175, 13.0161299], [77.5914262, 13.0159405], [77.5914224, 13.0159025], [77.5914159, 13.015839], [77.5914148, 13.0158334], [77.5914062, 13.0157905], [77.5914058, 13.0157488], [77.5915167, 13.0156176], [77.5915373, 13.015605], [77.5915902, 13.0155966], [77.5916341, 13.0155961], [77.5916582, 13.0155959], [77.5916824, 13.0155985], [77.5917244, 13.0155949], [77.5917638, 13.0155834], [77.5918209, 13.0155589], [77.5918857, 13.0154999], [77.591898, 13.0154941], [77.5919184, 13.0154819], [77.5919216, 13.01548], [77.5920078, 13.0154285], [77.5923153, 13.0152915], [77.5926323, 13.0150631], [77.5926705, 13.0152021], [77.5927113, 13.0153505], [77.5927406, 13.0154563], [77.5927735, 13.0155757], [77.59285, 13.0158785], [77.5936212, 13.0158196], [77.5935687, 13.0160653], [77.5937108, 13.0165327], [77.5938054, 13.0165106], [77.5940715, 13.0165033], [77.5943399, 13.0165628], [77.5948095, 13.0166296], [77.5949, 13.0166411], [77.5951005, 13.0167152], [77.5950938, 13.0168411], [77.5950166, 13.0174144], [77.5949296, 13.0174992], [77.5947992, 13.0175562], [77.5947356, 13.017585], [77.5947202, 13.017601], [77.5945726, 13.0176679], [77.5945687, 13.017748], [77.5945913, 13.0178817], [77.5945884, 13.0180208], [77.5947553, 13.018564], [77.5947524, 13.0185641], [77.5943596, 13.0186696], [77.5939467, 13.0187825], [77.5942193, 13.0197094], [77.5944135, 13.0202528], [77.5939725, 13.0203703], [77.5935981, 13.0204629], [77.5937337, 13.0209639], [77.5938446, 13.021333], [77.5939015, 13.0215543], [77.5939297, 13.0216898], [77.5940179, 13.0220101], [77.5941017, 13.0222917], [77.5941152, 13.0223464], [77.594203, 13.0226346], [77.5942621, 13.0228749], [77.5943118, 13.0230715], [77.594363, 13.0232637], [77.594443, 13.0235111], [77.5944805, 13.023683], [77.59452, 13.0237585], [77.5948568, 13.0236485], [77.595118, 13.0235671], [77.595394, 13.0234767], [77.5956702, 13.023398], [77.5959091, 13.0233183], [77.5961189, 13.023247], [77.5962006, 13.0235103], [77.596239, 13.0236648], [77.5964916, 13.0235884], [77.5968102, 13.023496], [77.5968696, 13.023551], [77.5969108, 13.023717], [77.5970336, 13.024112], [77.5970348, 13.0241165], [77.5970453, 13.0241983], [77.5970539, 13.0242508], [77.5970799, 13.0244348], [77.5971013, 13.0247158], [77.5971046, 13.0247553], [77.5971084, 13.0248489], [77.5971055, 13.0250257], [77.597138, 13.0261405], [77.5971639, 13.0272722], [77.5968009, 13.0273236], [77.5967931, 13.0284992], [77.5967823, 13.0287109], [77.5967834, 13.0288995], [77.5969826, 13.028894], [77.5970466, 13.0288908], [77.5972737, 13.0288663], [77.5972453, 13.0294625], [77.5977968, 13.029448], [77.5979915, 13.0294668], [77.5980088, 13.029706], [77.5980263, 13.0301243], [77.598644, 13.0300134], [77.5987115, 13.0303418], [77.5986121, 13.0303684], [77.5987636, 13.0309771], [77.5989089, 13.0315287], [77.5989864, 13.0319209], [77.5990259, 13.0321316], [77.5991623, 13.0321345], [77.5991807, 13.0323444], [77.5991941, 13.0326109], [77.5992246, 13.0328927], [77.5992533, 13.0331587], [77.5992552, 13.0331768], [77.5992568, 13.0331917], [77.5992572, 13.0331954], [77.5992592, 13.0332546], [77.5992596, 13.0332581], [77.5992599, 13.0332609], [77.59926, 13.0332614], [77.5992601, 13.0332623], [77.5992613, 13.0332623], [77.5992645, 13.0332623], [77.5992724, 13.0332611], [77.5992731, 13.033261], [77.5993359, 13.0332611], [77.5993554, 13.0332588], [77.5993985, 13.0332572], [77.5994911, 13.033259], [77.5995284, 13.0332602], [77.5997166, 13.033254], [77.599761, 13.0332552], [77.5999657, 13.0332499], [77.6000006, 13.0332501], [77.6001578, 13.0332517], [77.6001941, 13.0332556], [77.6002055, 13.0332584], [77.600238, 13.033266], [77.6003494, 13.0332907], [77.600363, 13.0332942], [77.6003954, 13.0333049], [77.6004017, 13.0333079], [77.6004644, 13.0333386], [77.600492, 13.033352], [77.6005032, 13.0333583], [77.600658, 13.033444], [77.6007877, 13.033566], [77.6008041, 13.0335814], [77.6008305, 13.0336062], [77.600909, 13.03368], [77.60092, 13.033683], [77.6009402, 13.0336888], [77.6009467, 13.0336907], [77.600983, 13.033701], [77.600984, 13.033701], [77.601214, 13.033763], [77.601239, 13.033769], [77.601264, 13.0337825], [77.601317, 13.033811], [77.6013197, 13.0338136], [77.6014551, 13.0339412], [77.601472, 13.033957], [77.6015, 13.0339819], [77.60159, 13.034062], [77.6017046, 13.0341409], [77.6018103, 13.0340982], [77.6020265, 13.0340473], [77.6019418, 13.0334322], [77.6029039, 13.0333], [77.6034685, 13.0332901], [77.6035346, 13.0340253], [77.6035455, 13.0340247], [77.6043717, 13.0339732], [77.6046558, 13.0339891]]]}}, {"type": "Feature", "properties": {"slug": "dasarahalli", "display_name": "Dasarahalli", "boundary_source": "osm"}, "geometry": {"type": "Polygon", "coordinates": [[[77.5424278, 12.9857016], [77.5424091, 12.9857078], [77.542381, 12.9857171], [77.5422805, 12.9857506], [77.5420246, 12.9858358], [77.5419948, 12.9858451], [77.5418934, 12.985887], [77.5418765, 12.985894], [77.5416783, 12.9859758], [77.5415739, 12.9860243], [77.5415469, 12.9860369], [77.5411436, 12.986225], [77.5406963, 12.986462], [77.5397513, 12.9869614], [77.539696, 12.9869906], [77.5395745, 12.9870548], [77.5392227, 12.9872407], [77.5390348, 12.98734], [77.5388938, 12.9874089], [77.5381261, 12.9877848], [77.537967, 12.9878247], [77.5378935, 12.9878435], [77.5376911, 12.9878808], [77.5375061, 12.9879151], [77.537494, 12.9878022], [77.5374459, 12.9875418], [77.5374446, 12.9875296], [77.5374365, 12.9874529], [77.5374331, 12.9874211], [77.5373986, 12.9871054], [77.5373606, 12.9867583], [77.5373555, 12.9867113], [77.5373525, 12.9866844], [77.5373043, 12.986241], [77.5372734, 12.9859203], [77.5372728, 12.9859139], [77.5372501, 12.9856783], [77.5372289, 12.9854581], [77.5371766, 12.984914], [77.537135, 12.984481], [77.5370948, 12.9840624], [77.5370738, 12.9838435], [77.5370464, 12.9834711], [77.5370532, 12.9834077], [77.5370827, 12.9833002], [77.5372383, 12.982865], [77.5372673, 12.98271], [77.5372669, 12.9826721], [77.5372655, 12.9825375], [77.5372655, 12.9825374], [77.5372654, 12.9825248], [77.5372654, 12.9825226], [77.5372653, 12.9825124], [77.5372652, 12.982512], [77.537264, 12.9823882], [77.5372573, 12.9823142], [77.5372393, 12.9821163], [77.5371889, 12.9818066], [77.5371804, 12.9817543], [77.5371521, 12.9815795], [77.5371367, 12.9815403], [77.5369204, 12.9809906], [77.5368712, 12.9808656], [77.5368244, 12.9807468], [77.5367975, 12.9806782], [77.536975, 12.9806006], [77.5378371, 12.9802235], [77.5378871, 12.9802016], [77.5379137, 12.98019], [77.5385504, 12.9799093], [77.538604, 12.9798857], [77.5388542, 12.9797754], [77.539181, 12.9796313], [77.5392468, 12.9796023], [77.53929, 12.9795849], [77.5396702, 12.979426], [77.5396744, 12.9794241], [77.5401209, 12.9792236], [77.5402079, 12.9791846], [77.5402603, 12.9791628], [77.5405073, 12.9790599], [77.5407972, 12.9789392], [77.5408639, 12.9789417], [77.5411359, 12.9788386], [77.5414686, 12.9787158], [77.5418818, 12.9786288], [77.541921, 12.9786206], [77.5422641, 12.9785694], [77.5428585, 12.9784625], [77.5429527, 12.9784455], [77.5434173, 12.9783526], [77.5438455, 12.9782719], [77.5440304, 12.9782368], [77.5440683, 12.9782256], [77.5442138, 12.9788269], [77.5442148, 12.9788314], [77.544233, 12.9789712], [77.5442982, 12.9792347], [77.5443033, 12.9792748], [77.544343, 12.9797634], [77.5443769, 12.9808042], [77.5433292, 12.9808468], [77.5428101, 12.9808865], [77.5428612, 12.9811707], [77.5428766, 12.9812448], [77.5428592, 12.9816584], [77.5428464, 12.9817637], [77.5428388, 12.9818257], [77.5428029, 12.982121], [77.5428005, 12.9821409], [77.5427885, 12.9822396], [77.5427721, 12.9823148], [77.5427316, 12.9825015], [77.5427247, 12.9825331], [77.5426738, 12.9828214], [77.5425691, 12.9832775], [77.5420288, 12.9831691], [77.5419014, 12.984062], [77.5418258, 12.9848818], [77.5418776, 12.9852533], [77.5423572, 12.9851259], [77.5423829, 12.9851188], [77.5424229, 12.9855953], [77.5424276, 12.9856784], [77.5424278, 12.9857016]]]}}, {"type": "Feature", "properties": {"slug": "yelahanka", "display_name": "Yelahanka", "boundary_source": "osm"}, "geometry": {"type": "Polygon", "coordinates": [[[77.580737, 13.1084938], [77.5808728, 13.108064], [77.5809012, 13.1079747], [77.5810041, 13.107679], [77.5810711, 13.1075292], [77.5812879, 13.1071634], [77.5816494, 13.1066957], [77.5817114, 13.106616], [77.5820232, 13.1062658], [77.5820838, 13.1061978], [77.5821379, 13.1061374], [77.5823547, 13.1058879], [77.5824504, 13.1057785], [77.5824982, 13.1057261], [77.5828479, 13.1053409], [77.5829584, 13.1052201], [77.5833945, 13.1047809], [77.5834236, 13.1047513], [77.583857, 13.1043156], [77.5839161, 13.1042562], [77.5839971, 13.1041741], [77.5845226, 13.1036923], [77.5845688, 13.1036534], [77.5846106, 13.1036176], [77.5846488, 13.1035849], [77.5846545, 13.1035803], [77.585318, 13.103018], [77.585491, 13.1028729], [77.5858542, 13.1025677], [77.586132, 13.1023594], [77.5864463, 13.1021213], [77.5865149, 13.1020676], [77.5870634, 13.1016352], [77.5873439, 13.101411], [77.587473, 13.101307], [77.5878552, 13.1010005], [77.5882482, 13.100686], [77.5883407, 13.1006083], [77.5886028, 13.1003843], [77.5890003, 13.1000562], [77.5892419, 13.0998573], [77.5896306, 13.0995146], [77.5896614, 13.0994894], [77.5901571, 13.099079], [77.5902845, 13.0989727], [77.5904809, 13.098807], [77.5906305, 13.0986801], [77.5911848, 13.0982003], [77.5915245, 13.09791], [77.5923182, 13.0971885], [77.5921218, 13.0969876], [77.5918672, 13.0957289], [77.591718, 13.0949905], [77.5915362, 13.0943078], [77.5913461, 13.0939012], [77.5910044, 13.093267], [77.5909551, 13.0931281], [77.5909822, 13.0930313], [77.5901464, 13.0925401], [77.5897496, 13.0934772], [77.5889321, 13.0930564], [77.5875375, 13.0927666], [77.5866297, 13.092704], [77.5859712, 13.0926963], [77.5858341, 13.0927189], [77.5845863, 13.0929354], [77.5839961, 13.0930769], [77.5825634, 13.0934968], [77.5818831, 13.0937881], [77.581107, 13.0942208], [77.5811063, 13.0942213], [77.5806979, 13.0944964], [77.5806916, 13.094501], [77.5806626, 13.094522], [77.5803126, 13.0947766], [77.5797409, 13.0952507], [77.5794771, 13.095496], [77.5791681, 13.0951671], [77.5784622, 13.0944644], [77.5787134, 13.0942371], [77.578398, 13.0939247], [77.5784336, 13.0937912], [77.5785494, 13.0935682], [77.5789363, 13.0936032], [77.5789781, 13.0934465], [77.5789386, 13.0930125], [77.5790323, 13.0929642], [77.5789089, 13.0927097], [77.5792971, 13.0925306], [77.5791905, 13.0923819], [77.5797317, 13.092109], [77.5803963, 13.0917933], [77.5807592, 13.0913869], [77.5808116, 13.0912602], [77.5807592, 13.0909673], [77.5806955, 13.0908067], [77.5805763, 13.0904272], [77.5804991, 13.0901404], [77.5804296, 13.0898933], [77.5802058, 13.0890924], [77.5793507, 13.0892432], [77.5788009, 13.0893401], [77.5772981, 13.0897494], [77.5772211, 13.0897687], [77.576603, 13.0899232], [77.5762175, 13.0900033], [77.5751233, 13.0902307], [77.5741745, 13.0904375], [77.5733313, 13.0908271], [77.5702942, 13.0923086], [77.5702426, 13.0924493], [77.5695355, 13.0943807], [77.5699589, 13.0978656], [77.569932, 13.0980647], [77.5699451, 13.0980628], [77.569948, 13.0980628], [77.5700596, 13.0980527], [77.5701264, 13.098052], [77.5703166, 13.0980637], [77.5706462, 13.0981225], [77.5709783, 13.0981791], [77.5709075, 13.0990551], [77.5708057, 13.0992814], [77.5705985, 13.0996175], [77.5705169, 13.099735], [77.5701873, 13.1001013], [77.5701632, 13.1001247], [77.5701406, 13.1001547], [77.5701112, 13.1001767], [77.5702758, 13.1002917], [77.5704428, 13.1004321], [77.5705683, 13.1002728], [77.5707682, 13.1000839], [77.5708203, 13.1004087], [77.5711829, 13.1008014], [77.571613, 13.1010747], [77.5717344, 13.1010908], [77.5718019, 13.1010409], [77.5719006, 13.101008], [77.5720676, 13.1010049], [77.5723304, 13.1011095], [77.5726254, 13.1014674], [77.5728101, 13.1016728], [77.5729959, 13.1015601], [77.5732416, 13.1015873], [77.5735929, 13.1015998], [77.5740117, 13.1013536], [77.5743078, 13.1010876], [77.5743843, 13.1015542], [77.5745501, 13.1023604], [77.5746832, 13.102362], [77.5747282, 13.1027093], [77.5749261, 13.10269], [77.5759291, 13.1025372], [77.5759508, 13.1034961], [77.5756, 13.1038093], [77.575351, 13.1038275], [77.5751246, 13.1038468], [77.5753088, 13.1054801], [77.5753165, 13.1055106], [77.5767026, 13.105293], [77.5772787, 13.1052039], [77.5776719, 13.1060221], [77.5778538, 13.1064192], [77.5781179, 13.1068856], [77.5786364, 13.1075308], [77.5792754, 13.1082736], [77.5796655, 13.1086741], [77.5797264, 13.1083438], [77.5802432, 13.1084096], [77.580737, 13.1084938]]]}}]}