{"type": "FeatureCollection", "features": [{"type": "Feature", "properties": {"slug": "charminar", "display_name": "Charminar", "boundary_source": "approximate"}, "geometry": {"type": "Polygon", "coordinates": [[[78.50301714086463, 17.3616], [78.50247303494314, 17.36687271140584], [78.50086162686407, 17.371942795469327], [78.49824484213623, 17.37661541170323], [78.49472324232919, 17.380710994086122], [78.49043216054861, 17.384072151683853], [78.48553650066084, 17.3865697170949], [78.48022440012986, 17.38810771028117], [78.4747, 17.388627027027027], [78.46917559987014, 17.38810771028117], [78.46386349933915, 17.3865697170949], [78.45896783945139, 17.384072151683853], [78.45467675767081, 17.380710994086122], [78.45115515786377, 17.37661541170323], [78.44853837313593, 17.371942795469327], [78.44692696505686, 17.36687271140584], [78.44638285913537, 17.3616], [78.44692696505686, 17.35632728859416], [78.44853837313593, 17.351257204530672], [78.45115515786377, 17.346584588296768], [78.45467675767081, 17.342489005913876], [78.45896783945139, 17.339127848316146], [78.46386349933915, 17.336630282905098], [78.46917559987014, 17.33509228971883], [78.4747, 17.33457297297297], [78.48022440012986, 17.33509228971883], [78.48553650066084, 17.336630282905098], [78.49043216054861, 17.339127848316146], [78.49472324232919, 17.342489005913876], [78.49824484213623, 17.346584588296768], [78.50086162686407, 17.351257204530672], [78.50247303494314, 17.35632728859416], [78.50301714086463, 17.3616]]]}}, {"type": "Feature", "properties": {"slug": "khairatabad", "display_name": "Khairatabad", "boundary_source": "osm"}, "geometry": {"type": "Polygon", "coordinates": [[[78.4497057, 17.414928], [78.4490051, 17.4155769], [78.4490105, 17.4175629], [78.4488174, 17.4181822], [78.4484687, 17.4188886], [78.4480154, 17.4194695], [78.4486685, 17.4210089], [78.448897, 17.4214991], [78.449386, 17.4225482], [78.4489086, 17.4233108], [78.4481468, 17.4240018], [78.4485867, 17.4252251], [78.4500861, 17.4259979], [78.4519153, 17.4266505], [78.4524303, 17.4267554], [78.4529212, 17.4275129], [78.4532376, 17.4282601], [78.4535703, 17.4284712], [78.4546592, 17.4287847], [78.4553887, 17.4286496], [78.456054, 17.4285263], [78.457143, 17.4277458], [78.4575372, 17.4270894], [78.4575453, 17.426392], [78.4572234, 17.4251585], [78.4578028, 17.4239813], [78.4623679, 17.4227632], [78.4627354, 17.4220748], [78.4622231, 17.4199942], [78.4653291, 17.4186992], [78.4651038, 17.4222514], [78.4646076, 17.4233518], [78.4635032, 17.4237757], [78.4627595, 17.4252404], [78.4622848, 17.4261591], [78.4620675, 17.4275283], [78.4620782, 17.4286568], [78.4630004, 17.4302444], [78.4639817, 17.4319339], [78.4660774, 17.4354127], [78.4669894, 17.4365526], [78.467979, 17.4370427], [78.4703002, 17.4375053], [78.4711951, 17.4376837], [78.4719461, 17.4375916], [78.4726783, 17.43736], [78.4735501, 17.4368341], [78.4743413, 17.4360754], [78.4743028, 17.4360312], [78.4728205, 17.4343263], [78.4732523, 17.4330967], [78.4723511, 17.4311519], [78.4723833, 17.4285724], [78.4739604, 17.4284905], [78.4759253, 17.4293969], [78.4772695, 17.4300169], [78.4775332, 17.4301385], [78.4773481, 17.4308051], [78.4787214, 17.4317571], [78.478716, 17.4321102], [78.4779382, 17.4333641], [78.4783941, 17.4343365], [78.4793248, 17.4341613], [78.4794074, 17.4341398], [78.4825856, 17.4333129], [78.4829244, 17.4332247], [78.4854295, 17.4319196], [78.4864273, 17.4306708], [78.4866526, 17.4294629], [78.4865024, 17.4288334], [78.4862745, 17.4285085], [78.4856012, 17.4275487], [78.4852954, 17.4276102], [78.4846115, 17.427683], [78.4841957, 17.4267656], [78.4835949, 17.4266121], [78.4836379, 17.4260158], [78.4841689, 17.4260017], [78.4846464, 17.4256332], [78.4843969, 17.4253491], [78.4842414, 17.4249576], [78.4843326, 17.4248322], [78.4847456, 17.4255564], [78.4850916, 17.4253722], [78.4851426, 17.4252186], [78.4854993, 17.4250625], [78.4859875, 17.4250702], [78.4860438, 17.4248604], [78.485848, 17.4239353], [78.4834109, 17.4207238], [78.4798237, 17.4159967], [78.475488, 17.4087084], [78.4741455, 17.408297], [78.4735584, 17.4082121], [78.4712889, 17.4078837], [78.4684216, 17.407812], [78.4679282, 17.4073653], [78.4676117, 17.4070915], [78.4675205, 17.4069111], [78.4673354, 17.4064542], [78.4672764, 17.4060012], [78.467389, 17.4051989], [78.467844, 17.4035392], [78.4680703, 17.4027137], [78.46652, 17.4028404], [78.4663044, 17.4029549], [78.465289, 17.403494], [78.4643259, 17.4042161], [78.4629888, 17.4031232], [78.4614157, 17.4026446], [78.4601374, 17.4031188], [78.4601256, 17.4031232], [78.4590071, 17.4029056], [78.4586743, 17.4056558], [78.4585195, 17.4072213], [78.4582708, 17.4089906], [78.4578135, 17.4091992], [78.458645, 17.4112057], [78.4605547, 17.4121168], [78.4601095, 17.4130689], [78.4564027, 17.4113132], [78.4553003, 17.4110572], [78.4540262, 17.4112927], [78.4537634, 17.4128027], [78.4534469, 17.4132582], [78.4527307, 17.4128104], [78.4514269, 17.412977], [78.4501478, 17.4131405], [78.4506466, 17.4140567], [78.4497057, 17.414928]]]}}, {"type": "Feature", "properties": {"slug": "serilingampally", "display_name": "Serilingampally", "boundary_source": "osm"}, "geometry": {"type": "MultiPolygon", "coordinates": [[[[78.3277142, 17.486935], [78.3267045, 17.4870134], [78.325873, 17.4871823], [78.325299, 17.4867781], [78.3239257, 17.4862767], [78.3227992, 17.4856524], [78.3205461, 17.4846803], [78.3201706, 17.4850487], [78.3199668, 17.4854273], [78.3200728, 17.4864581], [78.3201384, 17.4870953], [78.3202335, 17.4874007], [78.3202261, 17.4875432], [78.3201897, 17.4878775], [78.3201758, 17.4880422], [78.3201078, 17.4881984], [78.3200528, 17.488336], [78.3200019, 17.4884406], [78.3199824, 17.4884942], [78.3199457, 17.4885369], [78.3194303, 17.4892033], [78.3190441, 17.4897661], [78.3184755, 17.4900731], [78.3178961, 17.4902573], [78.316834, 17.4908712], [78.316201, 17.4918536], [78.3166185, 17.4942042], [78.3160159, 17.4932784], [78.315171, 17.4929536], [78.3148673, 17.4923187], [78.3143878, 17.4913163], [78.3138835, 17.4893465], [78.3134866, 17.487566], [78.3130628, 17.4861487], [78.3128402, 17.485724], [78.31236, 17.4846291], [78.3113301, 17.4826746], [78.3107827, 17.4800947], [78.3115661, 17.4800382], [78.3117472, 17.4800244], [78.3118857, 17.4800157], [78.3125003, 17.4799725], [78.3125572, 17.4799509], [78.313152, 17.4799027], [78.3196233, 17.4793783], [78.3196877, 17.4785392], [78.3199237, 17.4777], [78.3204167, 17.4776395], [78.3213672, 17.477523], [78.3214257, 17.4775158], [78.3224986, 17.4782731], [78.3228795, 17.4782475], [78.3233301, 17.4780582], [78.3237485, 17.4777819], [78.3244888, 17.4767279], [78.325154, 17.4756789], [78.3266561, 17.4733814], [78.3296226, 17.4711709], [78.3299069, 17.470603], [78.3304326, 17.4690372], [78.3317737, 17.4672871], [78.3327393, 17.466146], [78.333544, 17.4651687], [78.3344291, 17.4638024], [78.3354698, 17.4618476], [78.3368431, 17.4605376], [78.3390371, 17.4575286], [78.3396916, 17.4566485], [78.3411668, 17.4552207], [78.3420466, 17.4543098], [78.3436774, 17.4523652], [78.3446, 17.4515387], [78.3453671, 17.4511268], [78.3465232, 17.4505306], [78.3470248, 17.4501902], [78.3509048, 17.4464574], [78.3520551, 17.4453507], [78.3520995, 17.445308], [78.3544867, 17.4434299], [78.3591805, 17.4413469], [78.3632051, 17.4388084], [78.3637081, 17.4384912], [78.3635084, 17.4403902], [78.362742, 17.4417108], [78.3629532, 17.4435832], [78.3634938, 17.4466333], [78.363888, 17.448857], [78.3638018, 17.4520909], [78.3638015, 17.4555295], [78.3625304, 17.4561752], [78.3620737, 17.4564072], [78.3489893, 17.4630542], [78.347438, 17.4635374], [78.3490688, 17.4680558], [78.34914, 17.4711351], [78.3491716, 17.4721972], [78.3492458, 17.4749394], [78.3497192, 17.478052], [78.3497875, 17.4796882], [78.3498064, 17.4801412], [78.3497232, 17.4823139], [78.347379, 17.4828844], [78.3461773, 17.4834318], [78.3454263, 17.4841686], [78.3408344, 17.4879958], [78.3398688, 17.4885586], [78.3386242, 17.48862], [78.3366072, 17.4885791], [78.334955, 17.4881288], [78.333292, 17.4877707], [78.3308458, 17.4869725], [78.3295798, 17.4866553], [78.3281529, 17.4869009], [78.3277142, 17.486935]]], [[[78.3094114, 17.4677001], [78.3096358, 17.4677102], [78.3096448, 17.4675713], [78.3094164, 17.4675624], [78.3094114, 17.4677001]]]]}}, {"type": "Feature", "properties": {"slug": "kukatpally", "display_name": "Kukatpally", "boundary_source": "osm"}, "geometry": {"type": "Polygon", "coordinates": [[[78.4330059, 17.497768], [78.4322012, 17.4959748], [78.4314877, 17.4943196], [78.4301627, 17.4940178], [78.4286821, 17.4945703], [78.4267026, 17.493721], [78.4265095, 17.4927336], [78.4262547, 17.4915824], [78.4266973, 17.4909019], [78.4259677, 17.4895512], [78.4253132, 17.4882056], [78.4259784, 17.4865427], [78.4263499, 17.4857484], [78.4274831, 17.4846675], [78.4279472, 17.4835086], [78.4278506, 17.4816436], [78.4280759, 17.4810577], [78.4293473, 17.4805614], [78.4291113, 17.4797325], [78.4287894, 17.4787501], [78.4283549, 17.4775016], [78.4283334, 17.4762326], [78.4282798, 17.4757772], [78.4282637, 17.4746925], [78.4281846, 17.4732022], [78.42795, 17.4733236], [78.4267298, 17.473955], [78.4246648, 17.475144], [78.424368, 17.4753031], [78.4236095, 17.4757097], [78.4219076, 17.4768693], [78.421479, 17.4771613], [78.4169612, 17.4804983], [78.4155688, 17.4815182], [78.4125888, 17.4838463], [78.4124869, 17.4839729], [78.412615, 17.4841552], [78.4127391, 17.4845114], [78.4130797, 17.4855629], [78.4129268, 17.4860157], [78.4128356, 17.4861948], [78.4135771, 17.4873446], [78.4137958, 17.4876837], [78.4148473, 17.4949285], [78.4168804, 17.4964224], [78.4187189, 17.4964371], [78.4204209, 17.4962689], [78.4204263, 17.4977578], [78.4215582, 17.4976759], [78.4240312, 17.4994256], [78.4268716, 17.4988373], [78.427207, 17.4989908], [78.4274752, 17.498735], [78.4285231, 17.499066], [78.4291436, 17.499262], [78.4330059, 17.497768]]]}}, {"type": "Feature", "properties": {"slug": "secunderabad", "display_name": "Secunderabad", "boundary_source": "approximate"}, "geometry": {"type": "Polygon", "coordinates": [[[78.52662927123883, 17.4399], [78.5260849322356, 17.445172711405842], [78.52447283386851, 17.45024279546933], [78.52185492817377, 17.454915411703233], [78.51833181979906, 17.459010994086125], [78.51403889982343, 17.462372151683855], [78.50914114275407, 17.464869717094903], [78.50382676664847, 17.46640771028117], [78.4983, 17.46692702702703], [78.49277323335153, 17.46640771028117], [78.48745885724593, 17.464869717094903], [78.48256110017657, 17.462372151683855], [78.47826818020094, 17.459010994086125], [78.47474507182623, 17.454915411703233], [78.47212716613149, 17.45024279546933], [78.4705150677644, 17.445172711405842], [78.46997072876117, 17.4399], [78.4705150677644, 17.43462728859416], [78.47212716613149, 17.429557204530674], [78.47474507182623, 17.42488458829677], [78.47826818020094, 17.42078900591388], [78.48256110017657, 17.417427848316148], [78.48745885724593, 17.4149302829051], [78.49277323335153, 17.413392289718832], [78.4983, 17.412872972972973], [78.50382676664847, 17.413392289718832], [78.50914114275407, 17.4149302829051], [78.51403889982343, 17.417427848316148], [78.51833181979906, 17.42078900591388], [78.52185492817377, 17.42488458829677], [78.52447283386851, 17.429557204530674], [78.5260849322356, 17.43462728859416], [78.52662927123883, 17.4399]]]}}, {"type": "Feature", "properties": {"slug": "lb-nagar", "display_name": "L.B. Nagar", "boundary_source": "osm"}, "geometry": {"type": "Polygon", "coordinates": [[[78.408308, 17.3013538], [78.4071771, 17.3012532], [78.3994559, 17.3005661], [78.3963347, 17.3002884], [78.3964849, 17.3033], [78.3954334, 17.3041604], [78.3759069, 17.3129899], [78.3758552, 17.3143002], [78.3756523, 17.3194406], [78.3755851, 17.3211429], [78.3759499, 17.3242361], [78.3751559, 17.3279539], [78.3762575, 17.3280139], [78.3810912, 17.3282774], [78.3813572, 17.3282919], [78.3817098, 17.3283901], [78.3823872, 17.3285787], [78.3825159, 17.3294595], [78.3861208, 17.3297872], [78.3889961, 17.3312211], [78.3934642, 17.3311089], [78.3950901, 17.3310982], [78.3966351, 17.3321224], [78.3966682, 17.3322388], [78.3990575, 17.3427234], [78.3992761, 17.3436801], [78.3992844, 17.3437065], [78.3996577, 17.3448991], [78.3999485, 17.3455191], [78.4006786, 17.3470755], [78.4006827, 17.3474399], [78.4007377, 17.3481656], [78.4008, 17.3489868], [78.400932, 17.3495155], [78.4004906, 17.3496646], [78.3995263, 17.3500295], [78.3979909, 17.3506104], [78.3980765, 17.3513245], [78.3981071, 17.3516909], [78.398372, 17.3519967], [78.3983653, 17.3529002], [78.3983785, 17.354028], [78.4007442, 17.3548063], [78.4012806, 17.3569875], [78.401506, 17.3573254], [78.404274, 17.3581241], [78.4070957, 17.3573356], [78.408941, 17.3581446], [78.4088659, 17.3583801], [78.4093165, 17.3586669], [78.4092093, 17.3589229], [78.4099027, 17.3593601], [78.4100085, 17.3608275], [78.4094535, 17.36131], [78.4089472, 17.36175], [78.4075463, 17.3629677], [78.4074283, 17.3660192], [78.4076858, 17.3678214], [78.4101534, 17.3720811], [78.4122133, 17.3714871], [78.4128356, 17.3683538], [78.4127253, 17.3679405], [78.4122562, 17.366183], [78.4201097, 17.364729], [78.4207964, 17.3650157], [78.4219122, 17.3641555], [78.4231997, 17.359568], [78.4247232, 17.3586669], [78.4207964, 17.3548165], [78.417449, 17.3515805], [78.4167308, 17.3492557], [78.4164619, 17.3483854], [78.4156895, 17.3453951], [78.4157006, 17.3453828], [78.4172773, 17.3436336], [78.4230709, 17.342036], [78.4250777, 17.3389917], [78.4254742, 17.3383902], [78.4257317, 17.3378166], [78.4274, 17.337576], [78.4323406, 17.3327266], [78.4319544, 17.3316717], [78.4345186, 17.330709], [78.4359348, 17.3299613], [78.4363076, 17.329631], [78.435806, 17.3290293], [78.4330487, 17.3230122], [78.4320617, 17.3215321], [78.4306073, 17.3226565], [78.4297194, 17.323343], [78.4255171, 17.3265918], [78.4242082, 17.3268785], [78.4215689, 17.3272882], [78.4196162, 17.326981], [78.4171057, 17.3291727], [78.4141874, 17.3295619], [78.414166, 17.3276569], [78.4167838, 17.3242771], [78.4140801, 17.3218394], [78.4158397, 17.3196885], [78.4156999, 17.319155], [78.415668, 17.319033], [78.4153247, 17.3181317], [78.414917, 17.3172713], [78.4147024, 17.3162675], [78.4141874, 17.3116583], [78.4148526, 17.310634], [78.4155393, 17.3098351], [78.4150457, 17.3092615], [78.4142733, 17.3087698], [78.4139729, 17.3081962], [78.4105396, 17.3086674], [78.4090805, 17.3105931], [78.4079862, 17.3125597], [78.4071279, 17.3129284], [78.4060121, 17.3097736], [78.4085012, 17.3026854], [78.408308, 17.3013538]]]}}]}